NORAD_CAT_ID,OBJECT_NAME,OBJECT_TYPE,EPOCH,MEAN_MOTION,ECCENTRICITY,INCLINATION,RA_OF_ASC_NODE,ARG_OF_PERICENTER,MEAN_ANOMALY,BSTAR,MEAN_MOTION_DOT,MEAN_MOTION_DDOT,TLE_LINE0,TLE_LINE1,TLE_LINE2,SEMIMAJOR_AXIS,PERIOD,APOGEE,PERIGEE,DECAYED
50201.0,STARLINK-3255,PAYLOAD,2024-01-05 18:54:35,15.08838302,0.0001304,53.2148,203.0944,91.6712,268.443,8.9715e-05,1.14e-05,0.0,0 STARLINK-3255,1 50201U 21125AX  24005.78790849  .00001140  00000-0  89715-4 0  9992,2 50201  53.2148 203.0944 0001304  91.6712 268.4430 15.08838302116406,6917.886,95.438,540.653,538.848,0.0
50201.0,STARLINK-3255,PAYLOAD,2024-01-05 20:29:58,15.08838508,0.0001305,53.2148,202.797,91.4445,268.6696,8.9938e-05,1.144e-05,0.0,0 STARLINK-3255,1 50201U 21125AX  24005.85414850  .00001144  00000-0  89938-4 0  9996,2 50201  53.2148 202.7970 0001305  91.4445 268.6696 15.08838508116890,6917.885,95.438,540.653,538.847,0.0
50201.0,STARLINK-3255,PAYLOAD,2024-01-06 12:23:49,15.08839631,0.0001296,53.2148,199.8233,90.6711,269.4429,9.2247e-05,1.181e-05,0.0,0 STARLINK-3255,1 50201U 21125AX  24006.51654882  .00001181  00000-0  92247-4 0  9999,2 50201  53.2148 199.8233 0001296  90.6711 269.4429 15.08839631116996,6917.882,95.438,540.643,538.85,0.0
50201.0,STARLINK-3255,PAYLOAD,2024-01-06 21:56:08,15.08840561,0.0001325,53.2151,198.0387,87.3074,272.807,9.3125e-05,1.195e-05,0.0,0 STARLINK-3255,1 50201U 21125AX  24006.91398869  .00001195  00000-0  93125-4 0  9994,2 50201  53.2151 198.0387 0001325  87.3074 272.8070 15.08840561117051,6917.879,95.438,540.66,538.827,0.0
50201.0,STARLINK-3255,PAYLOAD,2024-01-07 12:14:36,15.08841826,0.0001376,53.2151,195.3623,84.6996,275.4153,7.2767e-05,8.7e-06,0.0,0 STARLINK-3255,1 50201U 21125AX  24007.51014905  .00000870  00000-0  72767-4 0  9995,2 50201  53.2151 195.3623 0001376  84.6996 275.4153 15.08841826117149,6917.875,95.437,540.692,538.788,0.0
50201.0,STARLINK-3255,PAYLOAD,2024-01-07 18:36:09,15.08844237,0.000139,53.2151,194.173,83.711,276.4041,9.1471e-05,1.168e-05,0.0,0 STARLINK-3255,1 50201U 21125AX  24007.77510698  .00001168  00000-0  91471-4 0  9997,2 50201  53.2151 194.1730 0001390  83.7110 276.4041 15.08844237117189,6917.867,95.437,540.694,538.771,0.0
50201.0,STARLINK-3255,PAYLOAD,2024-01-08 18:26:56,15.08841997,0.0001336,53.2151,189.7123,89.6802,270.4344,6.2906e-05,7.13e-06,0.0,0 STARLINK-3255,1 50201U 21125AX  24008.76870730  .00000713  00000-0  62906-4 0  9999,2 50201  53.2151 189.7123 0001336  89.6802 270.4344 15.08841997116851,6917.874,95.437,540.664,538.815,0.0
50201.0,STARLINK-3255,PAYLOAD,2024-01-09 11:56:10,15.08842126,0.0001416,53.2156,186.4417,101.7379,258.3772,5.2771e-05,5.52e-06,0.0,0 STARLINK-3255,1 50201U 21125AX  24009.49734635  .00000552  00000-0  52771-4 0  9993,2 50201  53.2156 186.4417 0001416 101.7379 258.3772 15.08842126117441,6917.874,95.437,540.718,538.759,0.0
50201.0,STARLINK-3255,PAYLOAD,2024-01-09 21:28:29,15.08843778,0.0001397,53.2159,184.6571,104.6248,255.4899,5.1179e-05,5.27e-06,0.0,0 STARLINK-3255,1 50201U 21125AX  24009.89478441  .00000527  00000-0  51179-4 0  9990,2 50201  53.2159 184.6571 0001397 104.6248 255.4899 15.08843778117509,6917.869,95.437,540.7,538.767,0.0
50201.0,STARLINK-3255,PAYLOAD,2024-01-10 11:46:58,15.08836856,0.0001361,53.2159,181.9799,97.6319,262.4828,3.6702e-05,2.96e-06,0.0,0 STARLINK-3255,1 50201U 21125AX  24010.49094966  .00000296  00000-0  36702-4 0  9992,2 50201  53.2159 181.9799 0001361  97.6319 262.4828 15.08836856117118,6917.89,95.438,540.697,538.813,0.0
50201.0,STARLINK-3255,PAYLOAD,2024-01-11 14:48:30,15.08844126,0.0001265,53.2156,176.924,90.5485,269.5652,7.2893e-05,8.73e-06,0.0,0 STARLINK-3255,1 50201U 21125AX  24011.61702494  .00000873  00000-0  72893-4 0  9991,2 50201  53.2156 176.9240 0001265  90.5485 269.5652 15.08844126117762,6917.868,95.437,540.608,538.858,0.0
50201.0,STARLINK-3255,PAYLOAD,2024-01-11 16:23:53,15.08846221,0.0001279,53.2157,176.6268,87.9411,272.1728,8.9863e-05,1.143e-05,0.0,0 STARLINK-3255,1 50201U 21125AX  24011.68326313  .00001143  00000-0  89863-4 0  9996,2 50201  53.2157 176.6268 0001279  87.9411 272.1728 15.08846221117294,6917.861,95.437,540.611,538.842,0.0
50201.0,STARLINK-3255,PAYLOAD,2024-01-12 11:28:32,15.08835933,0.0001464,53.2176,173.058,88.6514,271.4646,-1.8144e-05,-5.77e-06,0.0,0 STARLINK-3255,1 50201U 21125AX  24012.47815500 -.00000577  00000-0 -18144-4 0  9991,2 50201  53.2176 173.0580 0001464  88.6514 271.4646 15.08835933117414,6917.893,95.438,540.771,538.745,0.0
50201.0,STARLINK-3255,PAYLOAD,2024-01-12 14:39:18,15.08833056,0.0001388,53.2176,172.4632,85.2804,274.8347,2.5218e-05,1.13e-06,0.0,0 STARLINK-3255,1 50201U 21125AX  24012.61063571  .00000113  00000-0  25218-4 0  9994,2 50201  53.2176 172.4632 0001388  85.2804 274.8347 15.08833056117919,6917.902,95.438,540.727,538.806,0.0
50201.0,STARLINK-3255,PAYLOAD,2024-01-12 19:25:28,15.08835452,0.0001323,53.2166,171.5705,82.7763,277.3379,2.7117e-05,1.44e-06,0.0,0 STARLINK-3255,1 50201U 21125AX  24012.80935446  .00000144  00000-0  27117-4 0  9998,2 50201  53.2166 171.5705 0001323  82.7763 277.3379 15.08835452117942,6917.894,95.438,540.675,538.844,0.0
50201.0,STARLINK-3255,PAYLOAD,2024-01-13 14:30:05,15.08843334,0.0001325,53.2174,168.005,87.1807,272.9337,4.3186e-05,4e-06,0.0,0 STARLINK-3255,1 50201U 21125AX  24013.60423096  .00000400  00000-0  43186-4 0  9999,2 50201  53.2174 168.0050 0001325  87.1807 272.9337 15.08843334118062,6917.87,95.437,540.652,538.819,0.0
50201.0,STARLINK-3255,PAYLOAD,2024-01-13 16:05:28,15.08844186,0.0001339,53.2172,167.7075,87.0244,273.0901,4.9459e-05,4.99e-06,0.0,0 STARLINK-3255,1 50201U 21125AX  24013.67047012  .00000499  00000-0  49459-4 0  9993,2 50201  53.2172 167.7075 0001339  87.0244 273.0901 15.08844186117594,6917.868,95.437,540.659,538.806,0.0
50201.0,STARLINK-3255,PAYLOAD,2024-01-14 09:34:43,15.08834614,0.0001243,53.2162,164.4365,87.2798,272.8336,5.8223e-05,6.39e-06,0.0,0 STARLINK-3255,1 50201U 21125AX  24014.39911743  .00000639  00000-0  58223-4 0  9999,2 50201  53.2162 164.4365 0001243  87.2798 272.8336 15.08834614117706,6917.897,95.438,540.622,538.902,0.0
50201.0,STARLINK-3255,PAYLOAD,2024-01-14 14:20:53,15.0883655,0.0001222,53.2157,163.5444,86.7777,273.3355,7.0389e-05,8.32e-06,0.0,0 STARLINK-3255,1 50201U 21125AX  24014.59783645  .00000832  00000-0  70389-4 0  9991,2 50201  53.2157 163.5444 0001222  86.7777 273.3355 15.08836550118211,6917.891,95.438,540.601,538.911,0.0
50201.0,STARLINK-3255,PAYLOAD,2024-01-14 15:56:16,15.08839,0.0001255,53.2156,163.2468,86.8148,273.2988,9.1479e-05,1.168e-05,0.0,0 STARLINK-3255,1 50201U 21125AX  24014.66407456  .00001168  00000-0  91479-4 0  9998,2 50201  53.2156 163.2468 0001255  86.8148 273.2988 15.08839000118227,6917.883,95.438,540.617,538.88,0.0
50201.0,STARLINK-3255,PAYLOAD,2024-01-15 09:25:30,15.08843213,0.0001265,53.2154,159.9753,93.8149,266.2988,5.5555e-05,5.96e-06,0.0,0 STARLINK-3255,1 50201U 21125AX  24015.39271339  .00000596  00000-0  55555-4 0  9997,2 50201  53.2154 159.9753 0001265  93.8149 266.2988 15.08843213117855,6917.871,95.437,540.611,538.86,0.0
50201.0,STARLINK-3255,PAYLOAD,2024-01-15 14:11:39,15.08847422,0.0001281,53.2155,159.084,86.1031,274.0108,8.7165e-05,1.1e-05,0.0,0 STARLINK-3255,1 50201U 21125AX  24015.59142943  .00001100  00000-0  87165-4 0  9991,2 50201  53.2155 159.0840 0001281  86.1031 274.0108 15.08847422118361,6917.858,95.437,540.609,538.837,0.0
50201.0,STARLINK-3255,PAYLOAD,2024-01-15 15:47:02,15.08849296,0.0001355,53.2157,158.787,75.2459,284.8683,0.0001011,1.322e-05,0.0,0 STARLINK-3255,1 50201U 21125AX  24015.65766830  .00001322  00000-0  10110-3 0  9996,2 50201  53.2157 158.7870 0001355  75.2459 284.8683 15.08849296118376,6917.852,95.437,540.654,538.78,0.0
50201.0,STARLINK-3255,PAYLOAD,2024-01-16 12:27:04,15.088339,0.0001506,53.2158,154.9217,73.9788,286.137,-1.1102e-05,-4.65e-06,0.0,0 STARLINK-3255,1 50201U 21125AX  24016.51880306 -.00000465  00000-0 -11102-4 0  9999,2 50201  53.2158 154.9217 0001506  73.9788 286.1370 15.08833900118023,6917.899,95.438,540.806,538.722,0.0
50201.0,STARLINK-3255,PAYLOAD,2024-01-16 14:02:27,15.08833572,0.0001395,53.2156,154.6241,79.2288,280.8862,-3.6384e-06,-3.46e-06,0.0,0 STARLINK-3255,1 50201U 21125AX  24016.58504273 -.00000346  00000-0 -36384-5 0  9990,2 50201  53.2156 154.6241 0001395  79.2288 280.8862 15.08833572118511,6917.9,95.438,540.73,538.8,0.0
50201.0,STARLINK-3255,PAYLOAD,2024-01-16 18:48:36,15.08838786,0.0001384,53.2156,153.731,76.4062,283.7084,3.3027e-05,2.38e-06,0.0,0 STARLINK-3255,1 50201U 21125AX  24016.78375898  .00000238  00000-0  33027-4 0  9999,2 50201  53.2156 153.7310 0001384  76.4062 283.7084 15.08838786118548,6917.884,95.438,540.707,538.792,0.0
50201.0,STARLINK-3255,PAYLOAD,2024-01-17 12:17:51,15.08843286,0.0001297,53.216,150.4588,98.475,261.6389,-9.1867e-06,-4.34e-06,0.0,0 STARLINK-3255,1 50201U 21125AX  24017.51239786 -.00000434  00000-0 -91867-5 0  9993,2 50201  53.2160 150.4588 0001297  98.4750 261.6389 15.08843286118178,6917.87,95.437,540.633,538.838,0.0
50201.0,STARLINK-3255,PAYLOAD,2024-01-17 13:53:14,15.08838579,0.0001326,53.2164,150.1607,82.1281,277.9862,0.00010687,1.413e-05,0.0,0 STARLINK-3255,1 50201U 21125AX  24017.57863794  .00001413  00000-0  10687-3 0  9996,2 50201  53.2164 150.1607 0001326  82.1281 277.9862 15.08838579118662,6917.885,95.438,540.667,538.832,0.0
50201.0,STARLINK-3255,PAYLOAD,2024-01-17 15:28:37,15.08841156,0.0001372,53.2163,149.8632,79.6345,280.4802,0.00013218,1.816e-05,0.0,0 STARLINK-3255,1 50201U 21125AX  24017.64487586  .00001816  00000-0  13218-3 0  9995,2 50201  53.2163 149.8632 0001372  79.6345 280.4802 15.08841156118676,6917.877,95.437,540.691,538.793,0.0
50201.0,STARLINK-3255,PAYLOAD,2024-01-18 13:44:00,15.08847965,0.0001467,53.2174,145.7014,63.916,296.1983,0.00016576,2.352e-05,0.0,0 STARLINK-3255,1 50201U 21125AX  24018.57223068  .00002352  00000-0  16576-3 0  9997,2 50201  53.2174 145.7014 0001467  63.9160 296.1983 15.08847965118817,6917.856,95.437,540.736,538.706,0.0
